[{"OBJECT_NAME":"STARLINK-31369","OBJECT_ID":"2024-031L","EPOCH":"2026-03-09T21:23:50.417664","MEAN_MOTION":15.30206483,"ECCENTRICITY":0.00014075,"INCLINATION":53.1611,"RA_OF_ASC_NODE":295.7854,"ARG_OF_PERICENTER":83.3177,"MEAN_ANOMALY":276.7984,"EPHEMERIS_TYPE":0,"CLASSIFICATION_TYPE":"U","NORAD_CAT_ID":58975,"ELEMENT_SET_NO":999,"REV_AT_EPOCH":11654,"BSTAR":9.8985777e-5,"MEAN_MOTION_DOT":2.574e-5,"MEAN_MOTION_DDOT":0},{"OBJECT_NAME":"TRANSPORTER-11 OBJECT A","OBJECT_ID":"2024-149A","EPOCH":"2026-03-09T17:54:54.302112","MEAN_MOTION":15.31141332,"ECCENTRICITY":0.00031096,"INCLINATION":97.378,"RA_OF_ASC_NODE":149.0949,"ARG_OF_PERICENTER":191.001,"MEAN_ANOMALY":169.1164,"EPHEMERIS_TYPE":0,"CLASSIFICATION_TYPE":"U","NORAD_CAT_ID":60468,"ELEMENT_SET_NO":999,"REV_AT_EPOCH":8683,"BSTAR":0.00036053677,"MEAN_MOTION_DOT":0.00010774,"MEAN_MOTION_DDOT":0}]
